<?xml version="1.0" encoding="UTF-8"?>
<ndm xmlns:xsi="http://www.w3.org/2001/XMLSchema-instance" xsi:noNamespaceSchemaLocation="https://sanaregistry.org/r/ndmxml_unqualified/ndmxml-2.0.0-master-2.0.xsd">
<omm id="CCSDS_OMM_VERS" version="2.0">
<header><CREATION_DATE/><ORIGINATOR/></header><body><segment><metadata><OBJECT_NAME>ORBCOMM FM24</OBJECT_NAME><OBJECT_ID>1998-053D</OBJECT_ID><CENTER_NAME>EARTH</CENTER_NAME><REF_FRAME>TEME</REF_FRAME><TIME_SYSTEM>UTC</TIME_SYSTEM><MEAN_ELEMENT_THEORY>SGP4</MEAN_ELEMENT_THEORY></metadata><data><meanElements><EPOCH>2024-10-02T17:49:44.437152</EPOCH><MEAN_MOTION>14.36535153</MEAN_MOTION><ECCENTRICITY>.0000637</ECCENTRICITY><INCLINATION>45.0083</INCLINATION><RA_OF_ASC_NODE>48.5064</RA_OF_ASC_NODE><ARG_OF_PERICENTER>262.8933</ARG_OF_PERICENTER><MEAN_ANOMALY>97.1843</MEAN_ANOMALY></meanElements><tleParameters><EPHEMERIS_TYPE>0</EPHEMERIS_TYPE><CLASSIFICATION_TYPE>U</CLASSIFICATION_TYPE><NORAD_CAT_ID>25478</NORAD_CAT_ID><ELEMENT_SET_NO>999</ELEMENT_SET_NO><REV_AT_EPOCH>36040</REV_AT_EPOCH><BSTAR>.28445E-2</BSTAR><MEAN_MOTION_DOT>.8298E-4</MEAN_MOTION_DOT><MEAN_MOTION_DDOT>0</MEAN_MOTION_DDOT></tleParameters></data></segment></body></omm>
<omm id="CCSDS_OMM_VERS" version="2.0">
<header><CREATION_DATE/><ORIGINATOR/></header><body><segment><metadata><OBJECT_NAME>ORBCOMM FM25</OBJECT_NAME><OBJECT_ID>1998-053E</OBJECT_ID><CENTER_NAME>EARTH</CENTER_NAME><REF_FRAME>TEME</REF_FRAME><TIME_SYSTEM>UTC</TIME_SYSTEM><MEAN_ELEMENT_THEORY>SGP4</MEAN_ELEMENT_THEORY></metadata><data><meanElements><EPOCH>2024-10-02T18:43:54.828480</EPOCH><MEAN_MOTION>14.36519655</MEAN_MOTION><ECCENTRICITY>.0002028</ECCENTRICITY><INCLINATION>45.0074</INCLINATION><RA_OF_ASC_NODE>46.5813</RA_OF_ASC_NODE><ARG_OF_PERICENTER>32.8327</ARG_OF_PERICENTER><MEAN_ANOMALY>327.2646</MEAN_ANOMALY></meanElements><tleParameters><EPHEMERIS_TYPE>0</EPHEMERIS_TYPE><CLASSIFICATION_TYPE>U</CLASSIFICATION_TYPE><NORAD_CAT_ID>25479</NORAD_CAT_ID><ELEMENT_SET_NO>999</ELEMENT_SET_NO><REV_AT_EPOCH>36070</REV_AT_EPOCH><BSTAR>.30563E-2</BSTAR><MEAN_MOTION_DOT>.8925E-4</MEAN_MOTION_DOT><MEAN_MOTION_DDOT>0</MEAN_MOTION_DDOT></tleParameters></data></segment></body></omm>
<omm id="CCSDS_OMM_VERS" version="2.0">
<header><CREATION_DATE/><ORIGINATOR/></header><body><segment><metadata><OBJECT_NAME>ORBCOMM FM26</OBJECT_NAME><OBJECT_ID>1998-053F</OBJECT_ID><CENTER_NAME>EARTH</CENTER_NAME><REF_FRAME>TEME</REF_FRAME><TIME_SYSTEM>UTC</TIME_SYSTEM><MEAN_ELEMENT_THEORY>SGP4</MEAN_ELEMENT_THEORY></metadata><data><meanElements><EPOCH>2024-10-02T18:42:31.576032</EPOCH><MEAN_MOTION>14.35821108</MEAN_MOTION><ECCENTRICITY>.0004221</ECCENTRICITY><INCLINATION>45.0072</INCLINATION><RA_OF_ASC_NODE>41.3819</RA_OF_ASC_NODE><ARG_OF_PERICENTER>63.6094</ARG_OF_PERICENTER><MEAN_ANOMALY>296.5186</MEAN_ANOMALY></meanElements><tleParameters><EPHEMERIS_TYPE>0</EPHEMERIS_TYPE><CLASSIFICATION_TYPE>U</CLASSIFICATION_TYPE><NORAD_CAT_ID>25480</NORAD_CAT_ID><ELEMENT_SET_NO>999</ELEMENT_SET_NO><REV_AT_EPOCH>36063</REV_AT_EPOCH><BSTAR>.23562E-2</BSTAR><MEAN_MOTION_DOT>.6749E-4</MEAN_MOTION_DOT><MEAN_MOTION_DDOT>0</MEAN_MOTION_DDOT></tleParameters></data></segment></body></omm>
<omm id="CCSDS_OMM_VERS" version="2.0">
<header><CREATION_DATE/><ORIGINATOR/></header><body><segment><metadata><OBJECT_NAME>ORBCOMM FM27</OBJECT_NAME><OBJECT_ID>1998-053G</OBJECT_ID><CENTER_NAME>EARTH</CENTER_NAME><REF_FRAME>TEME</REF_FRAME><TIME_SYSTEM>UTC</TIME_SYSTEM><MEAN_ELEMENT_THEORY>SGP4</MEAN_ELEMENT_THEORY></metadata><data><meanElements><EPOCH>2024-10-02T20:08:36.865248</EPOCH><MEAN_MOTION>14.36515876</MEAN_MOTION><ECCENTRICITY>.0001885</ECCENTRICITY><INCLINATION>45.0060</INCLINATION><RA_OF_ASC_NODE>46.5601</RA_OF_ASC_NODE><ARG_OF_PERICENTER>214.3018</ARG_OF_PERICENTER><MEAN_ANOMALY>145.7708</MEAN_ANOMALY></meanElements><tleParameters><EPHEMERIS_TYPE>0</EPHEMERIS_TYPE><CLASSIFICATION_TYPE>U</CLASSIFICATION_TYPE><NORAD_CAT_ID>25481</NORAD_CAT_ID><ELEMENT_SET_NO>999</ELEMENT_SET_NO><REV_AT_EPOCH>36064</REV_AT_EPOCH><BSTAR>.3243E-2</BSTAR><MEAN_MOTION_DOT>.9479E-4</MEAN_MOTION_DOT><MEAN_MOTION_DDOT>0</MEAN_MOTION_DDOT></tleParameters></data></segment></body></omm>
<omm id="CCSDS_OMM_VERS" version="2.0">
<header><CREATION_DATE/><ORIGINATOR/></header><body><segment><metadata><OBJECT_NAME>ORBCOMM FM28</OBJECT_NAME><OBJECT_ID>1998-053H</OBJECT_ID><CENTER_NAME>EARTH</CENTER_NAME><REF_FRAME>TEME</REF_FRAME><TIME_SYSTEM>UTC</TIME_SYSTEM><MEAN_ELEMENT_THEORY>SGP4</MEAN_ELEMENT_THEORY></metadata><data><meanElements><EPOCH>2024-10-02T15:29:42.924480</EPOCH><MEAN_MOTION>14.36871319</MEAN_MOTION><ECCENTRICITY>.0001774</ECCENTRICITY><INCLINATION>45.0066</INCLINATION><RA_OF_ASC_NODE>345.4942</RA_OF_ASC_NODE><ARG_OF_PERICENTER>103.8372</ARG_OF_PERICENTER><MEAN_ANOMALY>256.2673</MEAN_ANOMALY></meanElements><tleParameters><EPHEMERIS_TYPE>0</EPHEMERIS_TYPE><CLASSIFICATION_TYPE>U</CLASSIFICATION_TYPE><NORAD_CAT_ID>25482</NORAD_CAT_ID><ELEMENT_SET_NO>999</ELEMENT_SET_NO><REV_AT_EPOCH>36129</REV_AT_EPOCH><BSTAR>.24042E-2</BSTAR><MEAN_MOTION_DOT>.7039E-4</MEAN_MOTION_DOT><MEAN_MOTION_DDOT>0</MEAN_MOTION_DDOT></tleParameters></data></segment></body></omm>
<omm id="CCSDS_OMM_VERS" version="2.0">
<header><CREATION_DATE/><ORIGINATOR/></header><body><segment><metadata><OBJECT_NAME>ORBCOMM FM30</OBJECT_NAME><OBJECT_ID>1999-065A</OBJECT_ID><CENTER_NAME>EARTH</CENTER_NAME><REF_FRAME>TEME</REF_FRAME><TIME_SYSTEM>UTC</TIME_SYSTEM><MEAN_ELEMENT_THEORY>SGP4</MEAN_ELEMENT_THEORY></metadata><data><meanElements><EPOCH>2024-10-02T22:28:19.763904</EPOCH><MEAN_MOTION>14.35972561</MEAN_MOTION><ECCENTRICITY>.0004566</ECCENTRICITY><INCLINATION>45.0301</INCLINATION><RA_OF_ASC_NODE>226.3140</RA_OF_ASC_NODE><ARG_OF_PERICENTER>164.7467</ARG_OF_PERICENTER><MEAN_ANOMALY>195.3520</MEAN_ANOMALY></meanElements><tleParameters><EPHEMERIS_TYPE>0</EPHEMERIS_TYPE><CLASSIFICATION_TYPE>U</CLASSIFICATION_TYPE><NORAD_CAT_ID>25980</NORAD_CAT_ID><ELEMENT_SET_NO>999</ELEMENT_SET_NO><REV_AT_EPOCH>29745</REV_AT_EPOCH><BSTAR>.27134E-2</BSTAR><MEAN_MOTION_DOT>.7819E-4</MEAN_MOTION_DOT><MEAN_MOTION_DDOT>0</MEAN_MOTION_DDOT></tleParameters></data></segment></body></omm>
<omm id="CCSDS_OMM_VERS" version="2.0">
<header><CREATION_DATE/><ORIGINATOR/></header><body><segment><metadata><OBJECT_NAME>ORBCOMM FM31</OBJECT_NAME><OBJECT_ID>1999-065B</OBJECT_ID><CENTER_NAME>EARTH</CENTER_NAME><REF_FRAME>TEME</REF_FRAME><TIME_SYSTEM>UTC</TIME_SYSTEM><MEAN_ELEMENT_THEORY>SGP4</MEAN_ELEMENT_THEORY></metadata><data><meanElements><EPOCH>2024-10-02T21:40:10.372512</EPOCH><MEAN_MOTION>14.35946566</MEAN_MOTION><ECCENTRICITY>.000241</ECCENTRICITY><INCLINATION>45.0218</INCLINATION><RA_OF_ASC_NODE>220.0706</RA_OF_ASC_NODE><ARG_OF_PERICENTER>207.3545</ARG_OF_PERICENTER><MEAN_ANOMALY>152.7176</MEAN_ANOMALY></meanElements><tleParameters><EPHEMERIS_TYPE>0</EPHEMERIS_TYPE><CLASSIFICATION_TYPE>U</CLASSIFICATION_TYPE><NORAD_CAT_ID>25981</NORAD_CAT_ID><ELEMENT_SET_NO>999</ELEMENT_SET_NO><REV_AT_EPOCH>29700</REV_AT_EPOCH><BSTAR>.26575E-2</BSTAR><MEAN_MOTION_DOT>.765E-4</MEAN_MOTION_DOT><MEAN_MOTION_DDOT>0</MEAN_MOTION_DDOT></tleParameters></data></segment></body></omm>
<omm id="CCSDS_OMM_VERS" version="2.0">
<header><CREATION_DATE/><ORIGINATOR/></header><body><segment><metadata><OBJECT_NAME>ORBCOMM FM32</OBJECT_NAME><OBJECT_ID>1999-065C</OBJECT_ID><CENTER_NAME>EARTH</CENTER_NAME><REF_FRAME>TEME</REF_FRAME><TIME_SYSTEM>UTC</TIME_SYSTEM><MEAN_ELEMENT_THEORY>SGP4</MEAN_ELEMENT_THEORY></metadata><data><meanElements><EPOCH>2024-10-02T21:58:16.137120</EPOCH><MEAN_MOTION>14.34969233</MEAN_MOTION><ECCENTRICITY>.0004479</ECCENTRICITY><INCLINATION>45.0144</INCLINATION><RA_OF_ASC_NODE>234.8390</RA_OF_ASC_NODE><ARG_OF_PERICENTER>200.7520</ARG_OF_PERICENTER><MEAN_ANOMALY>159.3145</MEAN_ANOMALY></meanElements><tleParameters><EPHEMERIS_TYPE>0</EPHEMERIS_TYPE><CLASSIFICATION_TYPE>U</CLASSIFICATION_TYPE><NORAD_CAT_ID>25982</NORAD_CAT_ID><ELEMENT_SET_NO>999</ELEMENT_SET_NO><REV_AT_EPOCH>29762</REV_AT_EPOCH><BSTAR>.27524E-2</BSTAR><MEAN_MOTION_DOT>.7773E-4</MEAN_MOTION_DOT><MEAN_MOTION_DDOT>0</MEAN_MOTION_DDOT></tleParameters></data></segment></body></omm>

</ndm>
