ORBCOMM FM24            
1 25478U 98053D   24276.74287543  .00008298  00000+0  28445-2 0  9993
2 25478  45.0083  48.5064 0000637 262.8933  97.1843 14.36535153360405
ORBCOMM FM25            
1 25479U 98053E   24276.78049570  .00008925  00000+0  30563-2 0  9995
2 25479  45.0074  46.5813 0002028  32.8327 327.2646 14.36519655360704
ORBCOMM FM26            
1 25480U 98053F   24276.77953213  .00006749  00000+0  23562-2 0  9997
2 25480  45.0072  41.3819 0004221  63.6094 296.5186 14.35821108360630
ORBCOMM FM27            
1 25481U 98053G   24276.83931557  .00009479  00000+0  32430-2 0  9999
2 25481  45.0060  46.5601 0001885 214.3018 145.7708 14.36515876360647
ORBCOMM FM28            
1 25482U 98053H   24276.64563570  .00007039  00000+0  24042-2 0  9995
2 25482  45.0066 345.4942 0001774 103.8372 256.2673 14.36871319361293
ORBCOMM FM30            
1 25980U 99065A   24276.93633986  .00007819  00000+0  27134-2 0  9994
2 25980  45.0301 226.3140 0004566 164.7467 195.3520 14.35972561297458
ORBCOMM FM31            
1 25981U 99065B   24276.90289783  .00007650  00000+0  26575-2 0  9995
2 25981  45.0218 220.0706 0002410 207.3545 152.7176 14.35946566297003
ORBCOMM FM32            
1 25982U 99065C   24276.91546455  .00007773  00000+0  27524-2 0  9990
2 25982  45.0144 234.8390 0004479 200.7520 159.3145 14.34969233297623
